{
  "type": "FeatureCollection",
  "features": [
    {
      "type": "Feature",
      "properties": {
        "norad_id": 66909,
        "name": "SILVERSAT",
        "group": "stations",
        "lat": 51.60577624444986,
        "lon": -122.3154261208797,
        "alt_km": 407.67879705818086,
        "timestamp": "2025-12-11T10:53:14.641765+00:00",
        "meta_object_name": "SILVERSAT",
        "meta_object_id": "1998-067XV",
        "meta_epoch": "2025-12-10T17:29:49.371360",
        "meta_mean_motion": 15.51224506,
        "meta_eccentricity": 0.00046681,
        "meta_inclination": 51.6307,
        "meta_ra_of_asc_node": 152.3636,
        "meta_arg_of_pericenter": 216.2554,
        "meta_mean_anomaly": 143.8119,
        "meta_ephemeris_type": 0,
        "meta_classification_type": "U",
        "meta_norad_cat_id": 66909,
        "meta_element_set_no": 999,
        "meta_rev_at_epoch": 130,
        "meta_bstar": 0.0015305983,
        "meta_mean_motion_dot": 0.00091869,
        "meta_mean_motion_ddot": 0,
        "tle_line1": "1 66909U 98067XV  25344.72904365  .00091869  00000+0  15306-2 0  9993",
        "tle_line2": "2 66909  51.6307 152.3636 0004668 216.2554 143.8119 15.51224506  1301"
      },
      "geometry": {
        "type": "Point",
        "coordinates": [
          -122.3154261208797,
          51.60577624444986
        ]
      }
    },
    {
      "type": "Feature",
      "properties": {
        "norad_id": 66910,
        "name": "1998-067XW",
        "group": "stations",
        "lat": 51.068598016519296,
        "lon": -110.01091148674757,
        "alt_km": 406.1803722087343,
        "timestamp": "2025-12-11T10:53:14.641779+00:00",
        "meta_object_name": "1998-067XW",
        "meta_object_id": "1998-067XW",
        "meta_epoch": "2025-12-10T11:16:54.563808",
        "meta_mean_motion": 15.51350337,
        "meta_eccentricity": 0.00055419,
        "meta_inclination": 51.6299,
        "meta_ra_of_asc_node": 153.6351,
        "meta_arg_of_pericenter": 197.1967,
        "meta_mean_anomaly": 162.8836,
        "meta_ephemeris_type": 0,
        "meta_classification_type": "U",
        "meta_norad_cat_id": 66910,
        "meta_element_set_no": 999,
        "meta_rev_at_epoch": 126,
        "meta_bstar": 0.0013818348,
        "meta_mean_motion_dot": 0.00083191,
        "meta_mean_motion_ddot": 0,
        "tle_line1": "1 66910U 98067XW  25344.47007597  .00083191  00000+0  13818-2 0  9993",
        "tle_line2": "2 66910  51.6299 153.6351 0005541 197.1967 162.8836 15.51350337  1261"
      },
      "geometry": {
        "type": "Point",
        "coordinates": [
          -110.01091148674757,
          51.068598016519296
        ]
      }
    },
    {
      "type": "Feature",
      "properties": {
        "norad_id": 66911,
        "name": "1998-067XX",
        "group": "stations",
        "lat": 50.53389659452352,
        "lon": -105.47483881224508,
        "alt_km": 405.49669079334126,
        "timestamp": "2025-12-11T10:53:14.641790+00:00",
        "meta_object_name": "1998-067XX",
        "meta_object_id": "1998-067XX",
        "meta_epoch": "2025-12-11T04:16:32.481408",
        "meta_mean_motion": 15.5166419,
        "meta_eccentricity": 0.0005192,
        "meta_inclination": 51.6299,
        "meta_ra_of_asc_node": 150.1129,
        "meta_arg_of_pericenter": 201.0739,
        "meta_mean_anomaly": 159.0037,
        "meta_ephemeris_type": 0,
        "meta_classification_type": "U",
        "meta_norad_cat_id": 66911,
        "meta_element_set_no": 999,
        "meta_rev_at_epoch": 136,
        "meta_bstar": 0.0016096,
        "meta_mean_motion_dot": 0.00098261,
        "meta_mean_motion_ddot": 0,
        "tle_line1": "1 66911U 98067XX  25345.17815372  .00098261  00000+0  16096-2 0  9995",
        "tle_line2": "2 66911  51.6299 150.1129 0005192 201.0739 159.0037 15.51664190  1368"
      },
      "geometry": {
        "type": "Point",
        "coordinates": [
          -105.47483881224508,
          50.53389659452352
        ]
      }
    },
    {
      "type": "Feature",
      "properties": {
        "norad_id": 66912,
        "name": "1998-067XY",
        "group": "stations",
        "lat": 50.950496643660124,
        "lon": -133.62433803178956,
        "alt_km": 409.2155929950177,
        "timestamp": "2025-12-11T10:53:14.641802+00:00",
        "meta_object_name": "1998-067XY",
        "meta_object_id": "1998-067XY",
        "meta_epoch": "2025-12-10T17:31:22.847520",
        "meta_mean_motion": 15.50838333,
        "meta_eccentricity": 0.00047912,
        "meta_inclination": 51.6309,
        "meta_ra_of_asc_node": 152.3712,
        "meta_arg_of_pericenter": 213.0974,
        "meta_mean_anomaly": 146.9716,
        "meta_ephemeris_type": 0,
        "meta_classification_type": "U",
        "meta_norad_cat_id": 66912,
        "meta_element_set_no": 999,
        "meta_rev_at_epoch": 129,
        "meta_bstar": 0.0011490073,
        "meta_mean_motion_dot": 0.00067697,
        "meta_mean_motion_ddot": 0,
        "tle_line1": "1 66912U 98067XY  25344.73012555  .00067697  00000+0  11490-2 0  9991",
        "tle_line2": "2 66912  51.6309 152.3712 0004791 213.0974 146.9716 15.50838333  1293"
      },
      "geometry": {
        "type": "Point",
        "coordinates": [
          -133.62433803178956,
          50.950496643660124
        ]
      }
    }
  ]
}